{
"type": "FeatureCollection",
"name": "edificacao_poligono",
"crs": { "type": "name", "properties": { "name": "urn:ogc:def:crs:OGC:1.3:CRS84" } },
"features": [
{ "type": "Feature", "properties": { "id": 1, "nome": "geo" }, "geometry": { "type": "MultiPolygon", "coordinates": [ [ [ [ -46.723610233322994, -23.562767805435548 ], [ -46.722677045332212, -23.563221259794055 ], [ -46.722946882823528, -23.563777769822178 ], [ -46.72393628695832, -23.563293400115874 ], [ -46.723632719780611, -23.562798722827896 ], [ -46.723632719780611, -23.562798722827896 ], [ -46.723610233322994, -23.562767805435548 ] ] ] ] } },
{ "type": "Feature", "properties": { "id": 2, "nome": "fau" }, "geometry": { "type": "MultiPolygon", "coordinates": [ [ [ [ -46.729265577411667, -23.560129494488546 ], [ -46.729569144589398, -23.560655099723366 ], [ -46.730468602893772, -23.560181024506488 ], [ -46.730210008631268, -23.559676029459219 ], [ -46.729265577411667, -23.560129494488546 ] ] ] ] } },
{ "type": "Feature", "properties": { "id": 3, "nome": null }, "geometry": { "type": "MultiPolygon", "coordinates": [ [ [ [ -46.72582514939748, -23.561572327351865 ], [ -46.72560028482139, -23.561644468579118 ], [ -46.72582514939748, -23.562056703403513 ], [ -46.725780176482274, -23.562077315110773 ], [ -46.725667744194219, -23.561829974410156 ], [ -46.725566555134989, -23.5618711978926 ], [ -46.725712717109445, -23.562159761907498 ], [ -46.725611528050202, -23.56217006775346 ], [ -46.725397906702916, -23.561799056789837 ], [ -46.725240501499655, -23.561850586152993 ], [ -46.725544068677372, -23.562345267010983 ], [ -46.725645257736609, -23.56230404367729 ], [ -46.725802662939877, -23.562571995115075 ], [ -46.726544716040983, -23.562221596971103 ], [ -46.72642104052413, -23.561933033092011 ], [ -46.726027527515967, -23.562097926814808 ], [ -46.726038770744772, -23.562159761907498 ], [ -46.72582514939748, -23.561572327351865 ] ] ] ] } },
{ "type": "Feature", "properties": { "id": 4, "nome": "bibliotecs brasilianas" }, "geometry": { "type": "MultiPolygon", "coordinates": [ [ [ [ -46.722946882823528, -23.561634162691938 ], [ -46.721417803706103, -23.56238649033174 ], [ -46.721563965680566, -23.562705970629032 ], [ -46.723149260942002, -23.561933033092011 ], [ -46.722946882823528, -23.561634162691938 ] ] ] ] } }
]
}
